{
  "type": "FeatureCollection",
  "features": [
    {
      "type": "Feature",
      "properties": {
        "norad_id": 30389,
        "name": "FENGYUN 1C DEB",
        "group": "fengyun-1c-debris",
        "lat": 39.66645370579087,
        "lon": -91.37245225307014,
        "alt_km": 734.3567772050455,
        "timestamp": "2025-12-25T11:37:44.711318+00:00",
        "meta_object_name": "FENGYUN 1C DEB",
        "meta_object_id": "1999-025ADC",
        "meta_epoch": "2025-12-25T04:36:44.238816",
        "meta_mean_motion": 14.4424051,
        "meta_eccentricity": 0.0014699,
        "meta_inclination": 98.8369,
        "meta_ra_of_asc_node": 80.912,
        "meta_arg_of_pericenter": 188.2119,
        "meta_mean_anomaly": 232.366,
        "meta_ephemeris_type": 0,
        "meta_classification_type": "U",
        "meta_norad_cat_id": 30389,
        "meta_element_set_no": 999,
        "meta_rev_at_epoch": 97966,
        "meta_bstar": 0.0024326,
        "meta_mean_motion_dot": 8.329e-05,
        "meta_mean_motion_ddot": 0,
        "tle_line1": "1 30389U 99025ADC 25359.19217869  .00008329  00000+0  24326-2 0  9995",
        "tle_line2": "2 30389  98.8369  80.9120 0014699 188.2119 232.3660 14.44240510979661"
      },
      "geometry": {
        "type": "Point",
        "coordinates": [
          -91.37245225307014,
          39.66645370579087
        ]
      }
    },
    {
      "type": "Feature",
      "properties": {
        "norad_id": 30390,
        "name": "FENGYUN 1C DEB",
        "group": "fengyun-1c-debris",
        "lat": 42.39016917946258,
        "lon": 74.70747292310087,
        "alt_km": 784.0939181802578,
        "timestamp": "2025-12-25T11:37:44.711328+00:00",
        "meta_object_name": "FENGYUN 1C DEB",
        "meta_object_id": "1999-025ADD",
        "meta_epoch": "2025-12-24T05:19:11.456832",
        "meta_mean_motion": 14.29826892,
        "meta_eccentricity": 0.00677338,
        "meta_inclination": 98.8223,
        "meta_ra_of_asc_node": 81.5783,
        "meta_arg_of_pericenter": 131.6584,
        "meta_mean_anomaly": 255.3289,
        "meta_ephemeris_type": 0,
        "meta_classification_type": "U",
        "meta_norad_cat_id": 30390,
        "meta_element_set_no": 999,
        "meta_rev_at_epoch": 97548,
        "meta_bstar": 0.0017392471,
        "meta_mean_motion_dot": 4.542e-05,
        "meta_mean_motion_ddot": 0,
        "tle_line1": "1 30390U 99025ADD 25358.22166038  .00004542  00000+0  17392-2 0  9999",
        "tle_line2": "2 30390  98.8223  81.5783 0067733 131.6584 255.3289 14.29826892975483"
      },
      "geometry": {
        "type": "Point",
        "coordinates": [
          74.70747292310087,
          42.39016917946258
        ]
      }
    },
    {
      "type": "Feature",
      "properties": {
        "norad_id": 30391,
        "name": "FENGYUN 1C DEB",
        "group": "fengyun-1c-debris",
        "lat": 56.93858483530932,
        "lon": 31.57811813734935,
        "alt_km": 883.1624986294391,
        "timestamp": "2025-12-25T11:37:44.711338+00:00",
        "meta_object_name": "FENGYUN 1C DEB",
        "meta_object_id": "1999-025ADE",
        "meta_epoch": "2025-12-25T03:09:52.792128",
        "meta_mean_motion": 14.16290898,
        "meta_eccentricity": 0.007205,
        "meta_inclination": 98.7795,
        "meta_ra_of_asc_node": 44.9643,
        "meta_arg_of_pericenter": 226.5427,
        "meta_mean_anomaly": 194.4865,
        "meta_ephemeris_type": 0,
        "meta_classification_type": "U",
        "meta_norad_cat_id": 30391,
        "meta_element_set_no": 999,
        "meta_rev_at_epoch": 97054,
        "meta_bstar": 0.0011719,
        "meta_mean_motion_dot": 2.34e-05,
        "meta_mean_motion_ddot": 0,
        "tle_line1": "1 30391U 99025ADE 25359.13186102  .00002340  00000+0  11719-2 0  9996",
        "tle_line2": "2 30391  98.7795  44.9643 0072050 226.5427 194.4865 14.16290898970545"
      },
      "geometry": {
        "type": "Point",
        "coordinates": [
          31.57811813734935,
          56.93858483530932
        ]
      }
    },
    {
      "type": "Feature",
      "properties": {
        "norad_id": 30392,
        "name": "FENGYUN 1C DEB",
        "group": "fengyun-1c-debris",
        "lat": 6.578255171202684,
        "lon": 16.70275396608115,
        "alt_km": 777.7308863274711,
        "timestamp": "2025-12-25T11:37:44.711348+00:00",
        "meta_object_name": "FENGYUN 1C DEB",
        "meta_object_id": "1999-025ADF",
        "meta_epoch": "2025-12-24T23:59:17.497248",
        "meta_mean_motion": 14.0748123,
        "meta_eccentricity": 0.0180502,
        "meta_inclination": 98.7852,
        "meta_ra_of_asc_node": 17.2527,
        "meta_arg_of_pericenter": 322.2553,
        "meta_mean_anomaly": 106.7608,
        "meta_ephemeris_type": 0,
        "meta_classification_type": "U",
        "meta_norad_cat_id": 30392,
        "meta_element_set_no": 999,
        "meta_rev_at_epoch": 96843,
        "meta_bstar": 0.00064886,
        "meta_mean_motion_dot": 1.224e-05,
        "meta_mean_motion_ddot": 0,
        "tle_line1": "1 30392U 99025ADF 25358.99950807  .00001224  00000+0  64886-3 0  9995",
        "tle_line2": "2 30392  98.7852  17.2527 0180502 322.2553 106.7608 14.07481230968438"
      },
      "geometry": {
        "type": "Point",
        "coordinates": [
          16.70275396608115,
          6.578255171202684
        ]
      }
    },
    {
      "type": "Feature",
      "properties": {
        "norad_id": 30393,
        "name": "FENGYUN 1C DEB",
        "group": "fengyun-1c-debris",
        "lat": 67.88637846803712,
        "lon": 33.86308340687353,
        "alt_km": 936.807758852362,
        "timestamp": "2025-12-25T11:37:44.711358+00:00",
        "meta_object_name": "FENGYUN 1C DEB",
        "meta_object_id": "1999-025ADG",
        "meta_epoch": "2025-12-25T02:58:17.374080",
        "meta_mean_motion": 13.98992816,
        "meta_eccentricity": 0.0070116,
        "meta_inclination": 99.1639,
        "meta_ra_of_asc_node": 56.9092,
        "meta_arg_of_pericenter": 225.8144,
        "meta_mean_anomaly": 188.5559,
        "meta_ephemeris_type": 0,
        "meta_classification_type": "U",
        "meta_norad_cat_id": 30393,
        "meta_element_set_no": 999,
        "meta_rev_at_epoch": 96503,
        "meta_bstar": 9.5115e-05,
        "meta_mean_motion_dot": 9.5e-07,
        "meta_mean_motion_ddot": 0,
        "tle_line1": "1 30393U 99025ADG 25359.12381220  .00000095  00000+0  95115-4 0  9994",
        "tle_line2": "2 30393  99.1639  56.9092 0070116 225.8144 188.5559 13.98992816965039"
      },
      "geometry": {
        "type": "Point",
        "coordinates": [
          33.86308340687353,
          67.88637846803712
        ]
      }
    },
    {
      "type": "Feature",
      "properties": {
        "norad_id": 30394,
        "name": "FENGYUN 1C DEB",
        "group": "fengyun-1c-debris",
        "lat": -71.04743149023464,
        "lon": 179.09259586634093,
        "alt_km": 980.6557521982386,
        "timestamp": "2025-12-25T11:37:44.711368+00:00",
        "meta_object_name": "FENGYUN 1C DEB",
        "meta_object_id": "1999-025ADH",
        "meta_epoch": "2025-12-24T22:44:12.590880",
        "meta_mean_motion": 13.95794687,
        "meta_eccentricity": 0.0089763,
        "meta_inclination": 99.4335,
        "meta_ra_of_asc_node": 27.4987,
        "meta_arg_of_pericenter": 68.6837,
        "meta_mean_anomaly": 7.0944,
        "meta_ephemeris_type": 0,
        "meta_classification_type": "U",
        "meta_norad_cat_id": 30394,
        "meta_element_set_no": 999,
        "meta_rev_at_epoch": 96274,
        "meta_bstar": 0.00035741,
        "meta_mean_motion_dot": 4.58e-06,
        "meta_mean_motion_ddot": 0,
        "tle_line1": "1 30394U 99025ADH 25358.94736795  .00000458  00000+0  35741-3 0  9996",
        "tle_line2": "2 30394  99.4335  27.4987 0089763  68.6837   7.0944 13.95794687962743"
      },
      "geometry": {
        "type": "Point",
        "coordinates": [
          179.09259586634093,
          -71.04743149023464
        ]
      }
    },
    {
      "type": "Feature",
      "properties": {
        "norad_id": 30395,
        "name": "FENGYUN 1C DEB",
        "group": "fengyun-1c-debris",
        "lat": 80.56975234431548,
        "lon": -56.52412544871236,
        "alt_km": 907.8895841150543,
        "timestamp": "2025-12-25T11:37:44.711378+00:00",
        "meta_object_name": "FENGYUN 1C DEB",
        "meta_object_id": "1999-025ADJ",
        "meta_epoch": "2025-12-25T01:11:31.812000",
        "meta_mean_motion": 13.96708384,
        "meta_eccentricity": 0.0159838,
        "meta_inclination": 98.9301,
        "meta_ra_of_asc_node": 14.2555,
        "meta_arg_of_pericenter": 352.2792,
        "meta_mean_anomaly": 67.474,
        "meta_ephemeris_type": 0,
        "meta_classification_type": "U",
        "meta_norad_cat_id": 30395,
        "meta_element_set_no": 999,
        "meta_rev_at_epoch": 96195,
        "meta_bstar": 0.00053396,
        "meta_mean_motion_dot": 7.82e-06,
        "meta_mean_motion_ddot": 0,
        "tle_line1": "1 30395U 99025ADJ 25359.04967375  .00000782  00000+0  53396-3 0  9995",
        "tle_line2": "2 30395  98.9301  14.2555 0159838 352.2792  67.4740 13.96708384961955"
      },
      "geometry": {
        "type": "Point",
        "coordinates": [
          -56.52412544871236,
          80.56975234431548
        ]
      }
    }
  ]
}